ONEWEB-0120             
1 47266U 20100J   25211.81311447 -.00000278  00000+0 -80885-3 0  9998
2 47266  87.8862  54.5717 0001637  83.9770 276.1545 13.12442257222575
ONEWEB-0121             
1 47267U 20100K   25211.80162950  .00000120  00000+0  29915-3 0  9992
2 47267  87.8855  54.5438 0001841  84.6378 275.4960 13.12441705222487
ONEWEB-0122             
1 47268U 20100L   25211.94908798  .00000280  00000+0  74428-3 0  9992
2 47268  87.8851  54.5181 0001759  80.1331 279.9996 13.12442614222418
ONEWEB-0123             
1 47269U 20100M   25211.94436060  .00000314  00000+0  83820-3 0  9995
2 47269  87.8849  54.5467 0001650  87.6820 272.4498 13.12442502222554
ONEWEB-0124             
1 47270U 20100N   25211.93300277  .00000395  00000+0  10638-2 0  9991
2 47270  87.8859  54.5481 0001897  89.0629 271.0717 13.12442579222439
ONEWEB-0125             
1 47271U 20100P   25211.91028742 -.00000262  00000+0 -76407-3 0  9996
2 47271  87.8862  54.5160 0001745  95.3517 264.7810 13.12443619222491
ONEWEB-0126             
1 47272U 20100Q   25211.93152838  .00000352  00000+0  94321-3 0  9996
2 47272  87.8869  54.5296 0001652  83.7646 276.3671 13.12443403222563
ONEWEB-0127             
1 47273U 20100R   25211.82106937 -.00000435  00000+0 -12454-2 0  9994
2 47273  87.8863  54.5669 0001696  81.1064 279.0257 13.12443254222571
